STARLINK-33906          
1 63785U 25091L   25249.64408133  .00032086  00000+0  11698-2 0  9992
2 63785  43.0042  12.0193 0001214 278.1065  81.9648 15.27598097 20705
STARLINK-33923          
1 63786U 25091M   25249.64277762  .00030970  00000+0  11290-2 0  9993
2 63786  43.0031  12.0110 0000394 235.0927 124.9887 15.27615578 20707
STARLINK-33947          
1 63787U 25091N   25249.40308847  .00051240  00000+0  18575-2 0  9993
2 63787  43.0035  13.6546 0001542 238.0975 121.9727 15.27600238 20712
STARLINK-33882          
1 63788U 25091P   25249.63507985  .00027585  00000+0  10077-2 0  9997
2 63788  43.0033  11.9505 0000712 266.4700  93.6070 15.27596874 20745
STARLINK-33875          
1 63789U 25091Q   25249.62351386  .00034315  00000+0  12500-2 0  9991
2 63789  43.0071  11.8588 0002898 268.4337  91.6183 15.27595902 20758
STARLINK-33869          
1 63790U 25091R   25249.91668981  .00031408  00000+0  11459-2 0  9999
2 63790  43.0035  10.1186 0001877 275.0224 294.5005 15.27584123  5899
STARLINK-33935          
1 63791U 25091S   25249.33384922  .00032509  00000+0  11850-2 0  9994
2 63791  43.0014  13.9952 0000689 260.5770  99.5004 15.27598551 20815
STARLINK-33916          
1 63792U 25091T   25249.32999136  .00059817  00000+0  21606-2 0  9994
2 63792  43.0027  13.9633 0001594 257.8134 102.2540 15.27656378 20702
STARLINK-33925          
1 63793U 25091U   25249.62094497  .00043318  00000+0  15738-2 0  9992
2 63793  42.9997  11.8348 0001244 266.3992  93.6718 15.27593230 20860
STARLINK-33870          
1 63794U 25091V   25249.67990270  .00042803  00000+0  15550-2 0  9992
2 63794  43.0039  11.4205 0001366 252.2341 107.8362 15.27600734 20765
STARLINK-33867          
1 63795U 25091W   25249.77998256  .00045185  00000+0  16400-2 0  9997
2 63795  43.0028  11.3181 0001460 256.8772 103.1917 15.27609855 20778
STARLINK-33918          
1 63796U 25091X   25249.65049997  .00028618  00000+0  10449-2 0  9993
2 63796  43.0030  12.0680 0001615 274.6682  85.3985 15.27597956 20802
STARLINK-33712          
1 63797U 25091Y   25249.38333879  .00051639  00000+0  18722-2 0  9990
2 63797  42.9971  17.0193 0000780 335.4534  24.6280 15.27593584 20675
STARLINK-33827          
1 63798U 25091Z   25249.63893597  .00044716  00000+0  16228-2 0  9994
2 63798  43.0030  11.9773 0000921 256.8062 103.2687 15.27616852 20758
STARLINK-33899          
1 63799U 25091AA  25249.66668981  .00039122  00000+0  14253-2 0  9996
2 63799  43.0029  11.7162 0001146 270.7429 284.5965 15.27541636  5885
STARLINK-33900          
1 63800U 25091AB  25249.62737052  .00058076  00000+0  21024-2 0  9994
2 63800  43.0036  11.8827 0001682 274.9786  85.0874 15.27595112 20868
