[{"OBJECT_NAME":"STARLINK-33906","OBJECT_ID":"2025-091L","EPOCH":"2025-09-06T15:27:28.626912","MEAN_MOTION":15.27598097,"ECCENTRICITY":0.00012149,"INCLINATION":43.0042,"RA_OF_ASC_NODE":12.0193,"ARG_OF_PERICENTER":278.1065,"MEAN_ANOMALY":81.9648,"EPHEMERIS_TYPE":0,"CLASSIFICATION_TYPE":"U","NORAD_CAT_ID":63785,"ELEMENT_SET_NO":999,"REV_AT_EPOCH":2070,"BSTAR":0.0011697847,"MEAN_MOTION_DOT":0.00032086,"MEAN_MOTION_DDOT":0},{"OBJECT_NAME":"STARLINK-33923","OBJECT_ID":"2025-091M","EPOCH":"2025-09-06T15:25:35.986368","MEAN_MOTION":15.27615578,"ECCENTRICITY":3.944e-5,"INCLINATION":43.0031,"RA_OF_ASC_NODE":12.011,"ARG_OF_PERICENTER":235.0927,"MEAN_ANOMALY":124.9887,"EPHEMERIS_TYPE":0,"CLASSIFICATION_TYPE":"U","NORAD_CAT_ID":63786,"ELEMENT_SET_NO":999,"REV_AT_EPOCH":2070,"BSTAR":0.0011290321,"MEAN_MOTION_DOT":0.0003097,"MEAN_MOTION_DDOT":0},{"OBJECT_NAME":"STARLINK-33947","OBJECT_ID":"2025-091N","EPOCH":"2025-09-06T09:40:26.843808","MEAN_MOTION":15.27600238,"ECCENTRICITY":0.00015428,"INCLINATION":43.0035,"RA_OF_ASC_NODE":13.6546,"ARG_OF_PERICENTER":238.0975,"MEAN_ANOMALY":121.9727,"EPHEMERIS_TYPE":0,"CLASSIFICATION_TYPE":"U","NORAD_CAT_ID":63787,"ELEMENT_SET_NO":999,"REV_AT_EPOCH":2071,"BSTAR":0.0018574979,"MEAN_MOTION_DOT":0.0005124,"MEAN_MOTION_DDOT":0},{"OBJECT_NAME":"STARLINK-33882","OBJECT_ID":"2025-091P","EPOCH":"2025-09-06T15:14:30.899040","MEAN_MOTION":15.27596874,"ECCENTRICITY":7.12e-5,"INCLINATION":43.0033,"RA_OF_ASC_NODE":11.9505,"ARG_OF_PERICENTER":266.47,"MEAN_ANOMALY":93.607,"EPHEMERIS_TYPE":0,"CLASSIFICATION_TYPE":"U","NORAD_CAT_ID":63788,"ELEMENT_SET_NO":999,"REV_AT_EPOCH":2074,"BSTAR":0.0010076915,"MEAN_MOTION_DOT":0.00027585,"MEAN_MOTION_DDOT":0},{"OBJECT_NAME":"STARLINK-33875","OBJECT_ID":"2025-091Q","EPOCH":"2025-09-06T14:57:51.597504","MEAN_MOTION":15.27595902,"ECCENTRICITY":0.00028989,"INCLINATION":43.0071,"RA_OF_ASC_NODE":11.8588,"ARG_OF_PERICENTER":268.4337,"MEAN_ANOMALY":91.6183,"EPHEMERIS_TYPE":0,"CLASSIFICATION_TYPE":"U","NORAD_CAT_ID":63789,"ELEMENT_SET_NO":999,"REV_AT_EPOCH":2075,"BSTAR":0.0012500328,"MEAN_MOTION_DOT":0.00034315,"MEAN_MOTION_DDOT":0},{"OBJECT_NAME":"STARLINK-33869","OBJECT_ID":"2025-091R","EPOCH":"2025-09-06T22:00:01.999584","MEAN_MOTION":15.27584123,"ECCENTRICITY":0.00018778,"INCLINATION":43.0035,"RA_OF_ASC_NODE":10.1186,"ARG_OF_PERICENTER":275.0224,"MEAN_ANOMALY":294.5005,"EPHEMERIS_TYPE":0,"CLASSIFICATION_TYPE":"U","NORAD_CAT_ID":63790,"ELEMENT_SET_NO":999,"REV_AT_EPOCH":589,"BSTAR":0.0011458571,"MEAN_MOTION_DOT":0.00031408,"MEAN_MOTION_DDOT":0},{"OBJECT_NAME":"STARLINK-33935","OBJECT_ID":"2025-091S","EPOCH":"2025-09-06T08:00:44.572608","MEAN_MOTION":15.27598551,"ECCENTRICITY":6.896e-5,"INCLINATION":43.0014,"RA_OF_ASC_NODE":13.9952,"ARG_OF_PERICENTER":260.577,"MEAN_ANOMALY":99.5004,"EPHEMERIS_TYPE":0,"CLASSIFICATION_TYPE":"U","NORAD_CAT_ID":63791,"ELEMENT_SET_NO":999,"REV_AT_EPOCH":2081,"BSTAR":0.0011850115,"MEAN_MOTION_DOT":0.00032509,"MEAN_MOTION_DDOT":0},{"OBJECT_NAME":"STARLINK-33916","OBJECT_ID":"2025-091T","EPOCH":"2025-09-06T07:55:11.253504","MEAN_MOTION":15.27656378,"ECCENTRICITY":0.00015941,"INCLINATION":43.0027,"RA_OF_ASC_NODE":13.9633,"ARG_OF_PERICENTER":257.8134,"MEAN_ANOMALY":102.254,"EPHEMERIS_TYPE":0,"CLASSIFICATION_TYPE":"U","NORAD_CAT_ID":63792,"ELEMENT_SET_NO":999,"REV_AT_EPOCH":2070,"BSTAR":0.0021606295,"MEAN_MOTION_DOT":0.00059817,"MEAN_MOTION_DDOT":0},{"OBJECT_NAME":"STARLINK-33925","OBJECT_ID":"2025-091U","EPOCH":"2025-09-06T14:54:09.645408","MEAN_MOTION":15.2759323,"ECCENTRICITY":0.00012445,"INCLINATION":42.9997,"RA_OF_ASC_NODE":11.8348,"ARG_OF_PERICENTER":266.3992,"MEAN_ANOMALY":93.6718,"EPHEMERIS_TYPE":0,"CLASSIFICATION_TYPE":"U","NORAD_CAT_ID":63793,"ELEMENT_SET_NO":999,"REV_AT_EPOCH":2086,"BSTAR":0.0015738272,"MEAN_MOTION_DOT":0.00043318,"MEAN_MOTION_DDOT":0},{"OBJECT_NAME":"STARLINK-33870","OBJECT_ID":"2025-091V","EPOCH":"2025-09-06T16:19:03.593280","MEAN_MOTION":15.27600734,"ECCENTRICITY":0.00013662,"INCLINATION":43.0039,"RA_OF_ASC_NODE":11.4205,"ARG_OF_PERICENTER":252.2341,"MEAN_ANOMALY":107.8362,"EPHEMERIS_TYPE":0,"CLASSIFICATION_TYPE":"U","NORAD_CAT_ID":63794,"ELEMENT_SET_NO":999,"REV_AT_EPOCH":2076,"BSTAR":0.0015549774,"MEAN_MOTION_DOT":0.00042803,"MEAN_MOTION_DDOT":0},{"OBJECT_NAME":"STARLINK-33867","OBJECT_ID":"2025-091W","EPOCH":"2025-09-06T18:43:10.493184","MEAN_MOTION":15.27609855,"ECCENTRICITY":0.00014604,"INCLINATION":43.0028,"RA_OF_ASC_NODE":11.3181,"ARG_OF_PERICENTER":256.8772,"MEAN_ANOMALY":103.1917,"EPHEMERIS_TYPE":0,"CLASSIFICATION_TYPE":"U","NORAD_CAT_ID":63795,"ELEMENT_SET_NO":999,"REV_AT_EPOCH":2077,"BSTAR":0.0016399872,"MEAN_MOTION_DOT":0.00045185,"MEAN_MOTION_DDOT":0},{"OBJECT_NAME":"STARLINK-33918","OBJECT_ID":"2025-091X","EPOCH":"2025-09-06T15:36:43.197408","MEAN_MOTION":15.27597956,"ECCENTRICITY":0.00016154,"INCLINATION":43.003,"RA_OF_ASC_NODE":12.068,"ARG_OF_PERICENTER":274.6682,"MEAN_ANOMALY":85.3985,"EPHEMERIS_TYPE":0,"CLASSIFICATION_TYPE":"U","NORAD_CAT_ID":63796,"ELEMENT_SET_NO":999,"REV_AT_EPOCH":2080,"BSTAR":0.0010448647,"MEAN_MOTION_DOT":0.00028618,"MEAN_MOTION_DDOT":0},{"OBJECT_NAME":"STARLINK-33712","OBJECT_ID":"2025-091Y","EPOCH":"2025-09-06T09:12:00.471456","MEAN_MOTION":15.27593584,"ECCENTRICITY":7.807e-5,"INCLINATION":42.9971,"RA_OF_ASC_NODE":17.0193,"ARG_OF_PERICENTER":335.4534,"MEAN_ANOMALY":24.628,"EPHEMERIS_TYPE":0,"CLASSIFICATION_TYPE":"U","NORAD_CAT_ID":63797,"ELEMENT_SET_NO":999,"REV_AT_EPOCH":2067,"BSTAR":0.0018721835,"MEAN_MOTION_DOT":0.00051639,"MEAN_MOTION_DDOT":0},{"OBJECT_NAME":"STARLINK-33827","OBJECT_ID":"2025-091Z","EPOCH":"2025-09-06T15:20:04.067808","MEAN_MOTION":15.27616852,"ECCENTRICITY":9.212e-5,"INCLINATION":43.003,"RA_OF_ASC_NODE":11.9773,"ARG_OF_PERICENTER":256.8062,"MEAN_ANOMALY":103.2687,"EPHEMERIS_TYPE":0,"CLASSIFICATION_TYPE":"U","NORAD_CAT_ID":63798,"ELEMENT_SET_NO":999,"REV_AT_EPOCH":2075,"BSTAR":0.0016228258,"MEAN_MOTION_DOT":0.00044716,"MEAN_MOTION_DDOT":0},{"OBJECT_NAME":"STARLINK-33899","OBJECT_ID":"2025-091AA","EPOCH":"2025-09-06T16:00:01.999584","MEAN_MOTION":15.27541636,"ECCENTRICITY":0.00011468,"INCLINATION":43.0029,"RA_OF_ASC_NODE":11.7162,"ARG_OF_PERICENTER":270.7429,"MEAN_ANOMALY":284.5965,"EPHEMERIS_TYPE":0,"CLASSIFICATION_TYPE":"U","NORAD_CAT_ID":63799,"ELEMENT_SET_NO":999,"REV_AT_EPOCH":588,"BSTAR":0.0014253254,"MEAN_MOTION_DOT":0.00039122,"MEAN_MOTION_DDOT":0},{"OBJECT_NAME":"STARLINK-33900","OBJECT_ID":"2025-091AB","EPOCH":"2025-09-06T15:03:24.812928","MEAN_MOTION":15.27595112,"ECCENTRICITY":0.0001682,"INCLINATION":43.0036,"RA_OF_ASC_NODE":11.8827,"ARG_OF_PERICENTER":274.9786,"MEAN_ANOMALY":85.0874,"EPHEMERIS_TYPE":0,"CLASSIFICATION_TYPE":"U","NORAD_CAT_ID":63800,"ELEMENT_SET_NO":999,"REV_AT_EPOCH":2086,"BSTAR":0.0021024164,"MEAN_MOTION_DOT":0.00058076,"MEAN_MOTION_DDOT":0}]
